start=new Date('2022-10-20T00:00:00.000Z').valueOf();
sats=[{"CENTER_NAME":"EARTH","OBJECT_TYPE":"PAYLOAD","REF_FRAME":"TEME","FILE":"3623738","LAUNCH_DATE":"2022-08-10","ELEMENT_SET_NO":"999","TIME_SYSTEM":"UTC","MEAN_MOTION":"15.08801196","MEAN_MOTION_DOT":"-0.00014961","OBJECT_NAME":"STARLINK-4545","MEAN_ANOMALY":"333.8415","OBJECT_ID":"2022-097AK","APOAPSIS":"540.967","TLE_LINE2":"2 53421  53.2166 266.1945 0001594  52.8387 333.8415 15.08801196  1305","PERIOD":"95.440","PERIAPSIS":"538.761","MEAN_MOTION_DDOT":"0.0000000000000","INCLINATION":"53.2166","REV_AT_EPOCH":"130","SEMIMAJOR_AXIS":"6917.999","DECAY_DATE":null,"EPOCH":"2022-10-19T22:00:00.999936","EPHEMERIS_TYPE":"0","ECCENTRICITY":"0.00015940","RA_OF_ASC_NODE":"266.1945","MEAN_ELEMENT_THEORY":"SGP4","TLE_LINE1":"1 53421U 22097AK  22292.91667824 -.00014961  00000-0 -92483-3 0  9997","SITE":"AFETR","RCS_SIZE":"LARGE","BSTAR":"-0.00092483000000","GP_ID":"215624012","NORAD_CAT_ID":"53421","CLASSIFICATION_TYPE":"U","COUNTRY_CODE":"US","ARG_OF_PERICENTER":"52.8387"},{"MEAN_MOTION_DDOT":"0.0000000000000","PERIAPSIS":"538.611","PERIOD":"95.437","TLE_LINE2":"2 53422  53.2195 266.1937 0001570  42.2386  64.3974 15.08855679  1306","APOAPSIS":"540.784","OBJECT_ID":"2022-097AL","OBJECT_NAME":"STARLINK-4546","MEAN_ANOMALY":"64.3974","MEAN_MOTION_DOT":"-0.00016260","MEAN_MOTION":"15.08855679","TIME_SYSTEM":"UTC","ELEMENT_SET_NO":"999","LAUNCH_DATE":"2022-08-10","REF_FRAME":"TEME","OBJECT_TYPE":"PAYLOAD","FILE":"3623738","CENTER_NAME":"EARTH","NORAD_CAT_ID":"53422","CLASSIFICATION_TYPE":"U","ARG_OF_PERICENTER":"42.2386","COUNTRY_CODE":"US","GP_ID":"215624755","BSTAR":"-0.00100540000000","SITE":"AFETR","RCS_SIZE":"LARGE","TLE_LINE1":"1 53422U 22097AL  22292.91667824 -.00016260  00000-0 -10054-2 0  9995","RA_OF_ASC_NODE":"266.1937","MEAN_ELEMENT_THEORY":"SGP4","EPOCH":"2022-10-19T22:00:00.999936","ECCENTRICITY":"0.00015700","EPHEMERIS_TYPE":"0","REV_AT_EPOCH":"130","DECAY_DATE":null,"SEMIMAJOR_AXIS":"6917.832","INCLINATION":"53.2195"},{"PERIAPSIS":"538.479","PERIOD":"95.435","TLE_LINE2":"2 53423  53.2174 266.1926 0001671  57.0939 349.6033 15.08875998  1303","MEAN_MOTION_DDOT":"0.0000000000000","MEAN_MOTION_DOT":"-0.00126645","APOAPSIS":"540.791","OBJECT_ID":"2022-097AM","OBJECT_NAME":"STARLINK-4539","MEAN_ANOMALY":"349.6033","MEAN_MOTION":"15.08875998","TIME_SYSTEM":"UTC","REF_FRAME":"TEME","OBJECT_TYPE":"PAYLOAD","FILE":"3623738","CENTER_NAME":"EARTH","ELEMENT_SET_NO":"999","LAUNCH_DATE":"2022-08-10","BSTAR":"-0.00807300000000","GP_ID":"215623848","NORAD_CAT_ID":"53423","CLASSIFICATION_TYPE":"U","ARG_OF_PERICENTER":"57.0939","COUNTRY_CODE":"US","TLE_LINE1":"1 53423U 22097AM  22292.91667824 -.00126645  00000-0 -80730-2 0  9993","RA_OF_ASC_NODE":"266.1926","MEAN_ELEMENT_THEORY":"SGP4","SITE":"AFETR","RCS_SIZE":"LARGE","EPOCH":"2022-10-19T22:00:00.999936","EPHEMERIS_TYPE":"0","ECCENTRICITY":"0.00016710","REV_AT_EPOCH":"130","SEMIMAJOR_AXIS":"6917.770","DECAY_DATE":null,"INCLINATION":"53.2174"},{"SITE":"AFETR","RCS_SIZE":"LARGE","TLE_LINE1":"1 53424U 22097AN  22292.91667824 -.00000582  00000-0 -18473-4 0  9992","MEAN_ELEMENT_THEORY":"SGP4","RA_OF_ASC_NODE":"266.2029","CLASSIFICATION_TYPE":"U","NORAD_CAT_ID":"53424","ARG_OF_PERICENTER":"41.9984","COUNTRY_CODE":"US","GP_ID":"215624833","BSTAR":"-0.00001847300000","REV_AT_EPOCH":"130","SEMIMAJOR_AXIS":"6917.889","DECAY_DATE":null,"INCLINATION":"53.2176","EPOCH":"2022-10-19T22:00:00.999936","ECCENTRICITY":"0.00018610","EPHEMERIS_TYPE":"0","OBJECT_ID":"2022-097AN","APOAPSIS":"541.041","OBJECT_NAME":"STARLINK-4532","MEAN_ANOMALY":"104.6252","MEAN_MOTION_DOT":"-0.00000582","MEAN_MOTION_DDOT":"0.0000000000000","PERIAPSIS":"538.466","PERIOD":"95.438","TLE_LINE2":"2 53424  53.2176 266.2029 0001861  41.9984 104.6252 15.08837254  1309","ELEMENT_SET_NO":"999","LAUNCH_DATE":"2022-08-10","REF_FRAME":"TEME","OBJECT_TYPE":"PAYLOAD","FILE":"3623738","CENTER_NAME":"EARTH","MEAN_MOTION":"15.08837254","TIME_SYSTEM":"UTC"},{"COUNTRY_CODE":"US","ARG_OF_PERICENTER":"48.7855","CLASSIFICATION_TYPE":"U","NORAD_CAT_ID":"53425","GP_ID":"215624430","BSTAR":"0.00012683000000","RCS_SIZE":"LARGE","SITE":"AFETR","MEAN_ELEMENT_THEORY":"SGP4","RA_OF_ASC_NODE":"266.2029","TLE_LINE1":"1 53425U 22097AP  22292.91667824  .00001731  00000-0  12683-3 0  9994","ECCENTRICITY":"0.00017180","EPHEMERIS_TYPE":"0","EPOCH":"2022-10-19T22:00:00.999936","INCLINATION":"53.2175","SEMIMAJOR_AXIS":"6917.893","DECAY_DATE":null,"REV_AT_EPOCH":"130","MEAN_MOTION_DDOT":"0.0000000000000","TLE_LINE2":"2 53425  53.2175 266.2029 0001718  48.7855  37.8386 15.08835987  1308","PERIAPSIS":"538.569","PERIOD":"95.438","MEAN_ANOMALY":"37.8386","OBJECT_NAME":"STARLINK-4531","OBJECT_ID":"2022-097AP","APOAPSIS":"540.946","MEAN_MOTION_DOT":"0.00001731","TIME_SYSTEM":"UTC","MEAN_MOTION":"15.08835987","LAUNCH_DATE":"2022-08-10","ELEMENT_SET_NO":"999","CENTER_NAME":"EARTH","FILE":"3623738","OBJECT_TYPE":"PAYLOAD","REF_FRAME":"TEME"},{"NORAD_CAT_ID":"53426","CLASSIFICATION_TYPE":"U","COUNTRY_CODE":"US","ARG_OF_PERICENTER":"100.2606","BSTAR":"-0.00063320000000","GP_ID":"215624993","SITE":"AFETR","RCS_SIZE":"LARGE","TLE_LINE1":"1 53426U 22097AQ  22292.91667824 -.00036287  00000-0 -63320-3 0  9995","RA_OF_ASC_NODE":"258.9723","MEAN_ELEMENT_THEORY":"SGP4","EPOCH":"2022-10-19T22:00:00.999936","EPHEMERIS_TYPE":"0","ECCENTRICITY":"0.00011680","REV_AT_EPOCH":"130","SEMIMAJOR_AXIS":"6795.051","DECAY_DATE":null,"INCLINATION":"53.2138","MEAN_MOTION_DDOT":"0.0000000000000","PERIOD":"92.907","PERIAPSIS":"416.122","TLE_LINE2":"2 53426  53.2138 258.9723 0001168 100.2606 263.0233 15.49935712  1300","OBJECT_ID":"2022-097AQ","APOAPSIS":"417.710","OBJECT_NAME":"STARLINK-4558","MEAN_ANOMALY":"263.0233","MEAN_MOTION_DOT":"-0.00036287","MEAN_MOTION":"15.49935712","TIME_SYSTEM":"UTC","ELEMENT_SET_NO":"999","LAUNCH_DATE":"2022-08-10","OBJECT_TYPE":"PAYLOAD","REF_FRAME":"TEME","FILE":"3623738","CENTER_NAME":"EARTH"},{"EPOCH":"2022-10-19T22:00:00.999936","EPHEMERIS_TYPE":"0","ECCENTRICITY":"0.00016490","INCLINATION":"53.2203","REV_AT_EPOCH":"130","DECAY_DATE":null,"SEMIMAJOR_AXIS":"6917.792","BSTAR":"0.00372600000000","GP_ID":"215624266","CLASSIFICATION_TYPE":"U","NORAD_CAT_ID":"53427","COUNTRY_CODE":"US","ARG_OF_PERICENTER":"50.1781","MEAN_ELEMENT_THEORY":"SGP4","RA_OF_ASC_NODE":"266.1935","TLE_LINE1":"1 53427U 22097AR  22292.91667824  .00059560  00000-0  37260-2 0  9996","SITE":"AFETR","RCS_SIZE":"LARGE","TIME_SYSTEM":"UTC","MEAN_MOTION":"15.08868830","CENTER_NAME":"EARTH","REF_FRAME":"TEME","OBJECT_TYPE":"PAYLOAD","FILE":"3623738","LAUNCH_DATE":"2022-08-10","ELEMENT_SET_NO":"999","TLE_LINE2":"2 53427  53.2203 266.1935 0001649  50.1781  76.5026 15.08868830  1309","PERIAPSIS":"538.517","PERIOD":"95.436","MEAN_MOTION_DDOT":"0.0000000000000","MEAN_MOTION_DOT":"0.00059560","OBJECT_NAME":"STARLINK-4541","MEAN_ANOMALY":"76.5026","OBJECT_ID":"2022-097AR","APOAPSIS":"540.798"},{"INCLINATION":"53.2135","REV_AT_EPOCH":"130","SEMIMAJOR_AXIS":"6795.184","DECAY_DATE":null,"EPOCH":"2022-10-19T22:00:00.999936","ECCENTRICITY":"0.00012970","EPHEMERIS_TYPE":"0","SITE":"AFETR","RCS_SIZE":"LARGE","RA_OF_ASC_NODE":"258.9660","MEAN_ELEMENT_THEORY":"SGP4","TLE_LINE1":"1 53428U 22097AS  22292.91667824  .00033771  00000-0  60028-3 0  9992","CLASSIFICATION_TYPE":"U","NORAD_CAT_ID":"53428","COUNTRY_CODE":"US","ARG_OF_PERICENTER":"96.9464","BSTAR":"0.00060028000000","GP_ID":"215624596","LAUNCH_DATE":"2022-08-10","ELEMENT_SET_NO":"999","CENTER_NAME":"EARTH","OBJECT_TYPE":"PAYLOAD","REF_FRAME":"TEME","FILE":"3623738","TIME_SYSTEM":"UTC","MEAN_MOTION":"15.49890206","OBJECT_NAME":"STARLINK-4540","MEAN_ANOMALY":"270.1778","APOAPSIS":"417.930","OBJECT_ID":"2022-097AS","MEAN_MOTION_DOT":"0.00033771","MEAN_MOTION_DDOT":"0.0000000000000","TLE_LINE2":"2 53428  53.2135 258.9660 0001297  96.9464 270.1778 15.49890206  1306","PERIOD":"92.910","PERIAPSIS":"416.168"},{"RCS_SIZE":"LARGE","SITE":"AFETR","RA_OF_ASC_NODE":"258.9679","MEAN_ELEMENT_THEORY":"SGP4","TLE_LINE1":"1 53429U 22097AT  22292.91667824  .00042483  00000-0  75174-3 0  9991","COUNTRY_CODE":"US","ARG_OF_PERICENTER":"89.5480","NORAD_CAT_ID":"53429","CLASSIFICATION_TYPE":"U","GP_ID":"215624013","BSTAR":"0.00075174000000","INCLINATION":"53.2134","DECAY_DATE":null,"SEMIMAJOR_AXIS":"6795.127","REV_AT_EPOCH":"130","ECCENTRICITY":"0.00013100","EPHEMERIS_TYPE":"0","EPOCH":"2022-10-19T22:00:00.999936","MEAN_ANOMALY":"276.0188","OBJECT_NAME":"STARLINK-4543","APOAPSIS":"417.882","OBJECT_ID":"2022-097AT","MEAN_MOTION_DOT":"0.00042483","MEAN_MOTION_DDOT":"0.0000000000000","TLE_LINE2":"2 53429  53.2134 258.9679 0001310  89.5480 276.0188 15.49909768  1302","PERIOD":"92.909","PERIAPSIS":"416.102","LAUNCH_DATE":"2022-08-10","ELEMENT_SET_NO":"999","CENTER_NAME":"EARTH","FILE":"3623738","OBJECT_TYPE":"PAYLOAD","REF_FRAME":"TEME","TIME_SYSTEM":"UTC","MEAN_MOTION":"15.49909768"},{"MEAN_MOTION_DDOT":"0.0000000000000","PERIAPSIS":"416.276","PERIOD":"92.910","TLE_LINE2":"2 53430  53.2145 258.9646 0001134  87.0941 281.0410 15.49890928  1300","APOAPSIS":"417.817","OBJECT_ID":"2022-097AU","MEAN_ANOMALY":"281.0410","OBJECT_NAME":"STARLINK-4538","MEAN_MOTION_DOT":"0.00036889","MEAN_MOTION":"15.49890928","TIME_SYSTEM":"UTC","ELEMENT_SET_NO":"999","LAUNCH_DATE":"2022-08-10","FILE":"3623738","OBJECT_TYPE":"PAYLOAD","REF_FRAME":"TEME","CENTER_NAME":"EARTH","COUNTRY_CODE":"US","ARG_OF_PERICENTER":"87.0941","CLASSIFICATION_TYPE":"U","NORAD_CAT_ID":"53430","GP_ID":"215624756","BSTAR":"0.00065470000000","RCS_SIZE":"LARGE","SITE":"AFETR","TLE_LINE1":"1 53430U 22097AU  22292.91667824  .00036889  00000-0  65470-3 0  9994","RA_OF_ASC_NODE":"258.9646","MEAN_ELEMENT_THEORY":"SGP4","ECCENTRICITY":"0.00011340","EPHEMERIS_TYPE":"0","EPOCH":"2022-10-19T22:00:00.999936","SEMIMAJOR_AXIS":"6795.182","DECAY_DATE":null,"REV_AT_EPOCH":"130","INCLINATION":"53.2145"}];
